[
  {
    "COMMENT": "GENERATED VIA SPACETRACK.ORG API",
    "ORIGINATOR": "18 SPCS",
    "NORAD_CAT_ID": "41335",
    "OBJECT_NAME": "SENTINEL 3A",
    "OBJECT_TYPE": "PAYLOAD",
    "CLASSIFICATION_TYPE": "U",
    "INTLDES": "16011A",
    "EPOCH": "2023-05-12 09:22:15",
    "EPOCH_MICROSECONDS": "171168",
    "MEAN_MOTION": "14.26741059",
    "ECCENTRICITY": "0.0001296",
    "INCLINATION": "98.6229",
    "RA_OF_ASC_NODE": "199.9655",
    "ARG_OF_PERICENTER": "103.8206",
    "MEAN_ANOMALY": "256.3118",
    "EPHEMERIS_TYPE": "0",
    "ELEMENT_SET_NO": "999",
    "REV_AT_EPOCH": "37667",
    "BSTAR": "0.00011032",
    "MEAN_MOTION_DOT": "0.00000223",
    "MEAN_MOTION_DDOT": "0",
    "FILE": "3905921",
    "TLE_LINE0": "0 SENTINEL 3A",
    "TLE_LINE1": "1 41335U 16011A   23132.39045337  .00000223  00000-0  11032-3 0  9997",
    "TLE_LINE2": "2 41335  98.6229 199.9655 0001296 103.8206 256.3118 14.26741059376670",
    "OBJECT_ID": "2016-011A",
    "OBJECT_NUMBER": "41335",
    "SEMIMAJOR_AXIS": "7180.782",
    "PERIOD": "100.929",
    "APOGEE": "803.578",
    "PERIGEE": "801.716",
    "DECAYED": "0"
  },
  {
    "COMMENT": "GENERATED VIA SPACETRACK.ORG API",
    "ORIGINATOR": "18 SPCS",
    "NORAD_CAT_ID": "41335",
    "OBJECT_NAME": "SENTINEL 3A",
    "OBJECT_TYPE": "PAYLOAD",
    "CLASSIFICATION_TYPE": "U",
    "INTLDES": "16011A",
    "EPOCH": "2023-05-12 19:28:10",
    "EPOCH_MICROSECONDS": "377408",
    "MEAN_MOTION": "14.26741399",
    "ECCENTRICITY": "0.00013",
    "INCLINATION": "98.6229",
    "RA_OF_ASC_NODE": "200.3802",
    "ARG_OF_PERICENTER": "103.9159",
    "MEAN_ANOMALY": "256.2166",
    "EPHEMERIS_TYPE": "0",
    "ELEMENT_SET_NO": "999",
    "REV_AT_EPOCH": "37673",
    "BSTAR": "0.00011513",
    "MEAN_MOTION_DOT": "0.00000235",
    "MEAN_MOTION_DDOT": "0",
    "FILE": "3906000",
    "TLE_LINE0": "0 SENTINEL 3A",
    "TLE_LINE1": "1 41335U 16011A   23132.81123122  .00000235  00000-0  11513-3 0  9990",
    "TLE_LINE2": "2 41335  98.6229 200.3802 0001300 103.9159 256.2166 14.26741399376731",
    "OBJECT_ID": "2016-011A",
    "OBJECT_NUMBER": "41335",
    "SEMIMAJOR_AXIS": "7180.781",
    "PERIOD": "100.929",
    "APOGEE": "803.579",
    "PERIGEE": "801.712",
    "DECAYED": "0"
  },
  {
    "COMMENT": "GENERATED VIA SPACETRACK.ORG API",
    "ORIGINATOR": "18 SPCS",
    "NORAD_CAT_ID": "41335",
    "OBJECT_NAME": "SENTINEL 3A",
    "OBJECT_TYPE": "PAYLOAD",
    "CLASSIFICATION_TYPE": "U",
    "INTLDES": "16011A",
    "EPOCH": "2023-05-13 03:53:06",
    "EPOCH_MICROSECONDS": "393984",
    "MEAN_MOTION": "14.26741473",
    "ECCENTRICITY": "0.0001298",
    "INCLINATION": "98.6228",
    "RA_OF_ASC_NODE": "200.7257",
    "ARG_OF_PERICENTER": "103.9443",
    "MEAN_ANOMALY": "256.1882",
    "EPHEMERIS_TYPE": "0",
    "ELEMENT_SET_NO": "999",
    "REV_AT_EPOCH": "37678",
    "BSTAR": "0.00010617",
    "MEAN_MOTION_DOT": "0.00000213",
    "MEAN_MOTION_DDOT": "0",
    "FILE": "3906428",
    "TLE_LINE0": "0 SENTINEL 3A",
    "TLE_LINE1": "1 41335U 16011A   23133.16187956  .00000213  00000-0  10617-3 0  9994",
    "TLE_LINE2": "2 41335  98.6228 200.7257 0001298 103.9443 256.1882 14.26741473376782",
    "OBJECT_ID": "2016-011A",
    "OBJECT_NUMBER": "41335",
    "SEMIMAJOR_AXIS": "7180.780",
    "PERIOD": "100.929",
    "APOGEE": "803.578",
    "PERIGEE": "801.713",
    "DECAYED": "0"
  },
  {
    "COMMENT": "GENERATED VIA SPACETRACK.ORG API",
    "ORIGINATOR": "18 SPCS",
    "NORAD_CAT_ID": "41335",
    "OBJECT_NAME": "SENTINEL 3A",
    "OBJECT_TYPE": "PAYLOAD",
    "CLASSIFICATION_TYPE": "U",
    "INTLDES": "16011A",
    "EPOCH": "2023-05-13 10:37:03",
    "EPOCH_MICROSECONDS": "198432",
    "MEAN_MOTION": "14.26741621",
    "ECCENTRICITY": "0.00013",
    "INCLINATION": "98.6228",
    "RA_OF_ASC_NODE": "201.0021",
    "ARG_OF_PERICENTER": "103.7103",
    "MEAN_ANOMALY": "256.4222",
    "EPHEMERIS_TYPE": "0",
    "ELEMENT_SET_NO": "999",
    "REV_AT_EPOCH": "37682",
    "BSTAR": "0.00010667",
    "MEAN_MOTION_DOT": "0.00000215",
    "MEAN_MOTION_DDOT": "0",
    "FILE": "3906721",
    "TLE_LINE0": "0 SENTINEL 3A",
    "TLE_LINE1": "1 41335U 16011A   23133.44239813  .00000215  00000-0  10667-3 0  9992",
    "TLE_LINE2": "2 41335  98.6228 201.0021 0001300 103.7103 256.4222 14.26741621376821",
    "OBJECT_ID": "2016-011A",
    "OBJECT_NUMBER": "41335",
    "SEMIMAJOR_AXIS": "7180.780",
    "PERIOD": "100.929",
    "APOGEE": "803.578",
    "PERIGEE": "801.711",
    "DECAYED": "0"
  },
  {
    "COMMENT": "GENERATED VIA SPACETRACK.ORG API",
    "ORIGINATOR": "18 SPCS",
    "NORAD_CAT_ID": "41335",
    "OBJECT_NAME": "SENTINEL 3A",
    "OBJECT_TYPE": "PAYLOAD",
    "CLASSIFICATION_TYPE": "U",
    "INTLDES": "16011A",
    "EPOCH": "2023-05-13 12:18:02",
    "EPOCH_MICROSECONDS": "399328",
    "MEAN_MOTION": "14.26741554",
    "ECCENTRICITY": "0.0001297",
    "INCLINATION": "98.6228",
    "RA_OF_ASC_NODE": "201.0713",
    "ARG_OF_PERICENTER": "103.697",
    "MEAN_ANOMALY": "256.4355",
    "EPHEMERIS_TYPE": "0",
    "ELEMENT_SET_NO": "999",
    "REV_AT_EPOCH": "37683",
    "BSTAR": "0.000098758",
    "MEAN_MOTION_DOT": "0.00000195",
    "MEAN_MOTION_DDOT": "0",
    "FILE": "3906915",
    "TLE_LINE0": "0 SENTINEL 3A",
    "TLE_LINE1": "1 41335U 16011A   23133.51252777  .00000195  00000-0  98758-4 0  9999",
    "TLE_LINE2": "2 41335  98.6228 201.0713 0001297 103.6970 256.4355 14.26741554376838",
    "OBJECT_ID": "2016-011A",
    "OBJECT_NUMBER": "41335",
    "SEMIMAJOR_AXIS": "7180.780",
    "PERIOD": "100.929",
    "APOGEE": "803.577",
    "PERIGEE": "801.714",
    "DECAYED": "0"
  },
  {
    "COMMENT": "GENERATED VIA SPACETRACK.ORG API",
    "ORIGINATOR": "18 SPCS",
    "NORAD_CAT_ID": "41335",
    "OBJECT_NAME": "SENTINEL 3A",
    "OBJECT_TYPE": "PAYLOAD",
    "CLASSIFICATION_TYPE": "U",
    "INTLDES": "16011A",
    "EPOCH": "2023-05-13 19:01:59",
    "EPOCH_MICROSECONDS": "202912",
    "MEAN_MOTION": "14.26741659",
    "ECCENTRICITY": "0.0001299",
    "INCLINATION": "98.6228",
    "RA_OF_ASC_NODE": "201.3477",
    "ARG_OF_PERICENTER": "103.7897",
    "MEAN_ANOMALY": "256.3428",
    "EPHEMERIS_TYPE": "0",
    "ELEMENT_SET_NO": "999",
    "REV_AT_EPOCH": "37687",
    "BSTAR": "0.000094537",
    "MEAN_MOTION_DOT": "0.00000185",
    "MEAN_MOTION_DDOT": "0",
    "FILE": "3906971",
    "TLE_LINE0": "0 SENTINEL 3A",
    "TLE_LINE1": "1 41335U 16011A   23133.79304633  .00000185  00000-0  94537-4 0  9998",
    "TLE_LINE2": "2 41335  98.6228 201.3477 0001299 103.7897 256.3428 14.26741659376879",
    "OBJECT_ID": "2016-011A",
    "OBJECT_NUMBER": "41335",
    "SEMIMAJOR_AXIS": "7180.780",
    "PERIOD": "100.929",
    "APOGEE": "803.578",
    "PERIGEE": "801.712",
    "DECAYED": "0"
  },
  {
    "COMMENT": "GENERATED VIA SPACETRACK.ORG API",
    "ORIGINATOR": "18 SPCS",
    "NORAD_CAT_ID": "41335",
    "OBJECT_NAME": "SENTINEL 3A",
    "OBJECT_TYPE": "PAYLOAD",
    "CLASSIFICATION_TYPE": "U",
    "INTLDES": "16011A",
    "EPOCH": "2023-05-13 20:42:58",
    "EPOCH_MICROSECONDS": "402944",
    "MEAN_MOTION": "14.26741686",
    "ECCENTRICITY": "0.0001299",
    "INCLINATION": "98.6228",
    "RA_OF_ASC_NODE": "201.4168",
    "ARG_OF_PERICENTER": "103.7212",
    "MEAN_ANOMALY": "256.4113",
    "EPHEMERIS_TYPE": "0",
    "ELEMENT_SET_NO": "999",
    "REV_AT_EPOCH": "37688",
    "BSTAR": "0.000094515",
    "MEAN_MOTION_DOT": "0.00000185",
    "MEAN_MOTION_DDOT": "0",
    "FILE": "3907148",
    "TLE_LINE0": "0 SENTINEL 3A",
    "TLE_LINE1": "1 41335U 16011A   23133.86317596  .00000185  00000-0  94515-4 0  9994",
    "TLE_LINE2": "2 41335  98.6228 201.4168 0001299 103.7212 256.4113 14.26741686376881",
    "OBJECT_ID": "2016-011A",
    "OBJECT_NUMBER": "41335",
    "SEMIMAJOR_AXIS": "7180.780",
    "PERIOD": "100.929",
    "APOGEE": "803.578",
    "PERIGEE": "801.712",
    "DECAYED": "0"
  },
  {
    "COMMENT": "GENERATED VIA SPACETRACK.ORG API",
    "ORIGINATOR": "18 SPCS",
    "NORAD_CAT_ID": "41335",
    "OBJECT_NAME": "SENTINEL 3A",
    "OBJECT_TYPE": "PAYLOAD",
    "CLASSIFICATION_TYPE": "U",
    "INTLDES": "16011A",
    "EPOCH": "2023-05-14 03:26:55",
    "EPOCH_MICROSECONDS": "200480",
    "MEAN_MOTION": "14.26741918",
    "ECCENTRICITY": "0.0001303",
    "INCLINATION": "98.6227",
    "RA_OF_ASC_NODE": "201.6933",
    "ARG_OF_PERICENTER": "103.8242",
    "MEAN_ANOMALY": "256.3084",
    "EPHEMERIS_TYPE": "0",
    "ELEMENT_SET_NO": "999",
    "REV_AT_EPOCH": "37692",
    "BSTAR": "0.000098944",
    "MEAN_MOTION_DOT": "0.00000196",
    "MEAN_MOTION_DDOT": "0",
    "FILE": "3907200",
    "TLE_LINE0": "0 SENTINEL 3A",
    "TLE_LINE1": "1 41335U 16011A   23134.14369445  .00000196  00000-0  98944-4 0  9998",
    "TLE_LINE2": "2 41335  98.6227 201.6933 0001303 103.8242 256.3084 14.26741918376921",
    "OBJECT_ID": "2016-011A",
    "OBJECT_NUMBER": "41335",
    "SEMIMAJOR_AXIS": "7180.779",
    "PERIOD": "100.929",
    "APOGEE": "803.580",
    "PERIGEE": "801.708",
    "DECAYED": "0"
  }
]